ONEWEB-0156             
1 48052U 21025L   25151.69692965 -.00000162  00000+0 -47787-3 0  9991
2 48052  87.8983  36.0202 0002026  79.6018 280.5339 13.13469000203493
ONEWEB-0161             
1 48053U 21025M   25152.43332499  .00000267  00000+0  69650-3 0  9995
2 48053  87.8983  35.8906 0002048  81.5199 278.6162 13.13468852203539
ONEWEB-0158             
1 48054U 21025N   25151.78326412 -.00000295  00000+0 -84283-3 0  9993
2 48054  87.8982  36.0002 0001856  75.6128 284.5207 13.13468874203564
ONEWEB-0157             
1 48055U 21025P   25151.96101516  .00000281  00000+0  73459-3 0  9996
2 48055  87.8977  35.9760 0002352  83.9370 276.2027 13.13473084203524
ONEWEB-0162             
1 48056U 21025Q   25151.93719124 -.00000265  00000+0 -76184-3 0  9996
2 48056  87.8980  35.9789 0001899  79.6843 280.4500 13.13471360203496
ONEWEB-0155             
1 48057U 21025R   25151.94408347 -.00000524  00000+0 -14708-2 0  9991
2 48057  87.8979  35.9857 0001941  86.9537 273.1814 13.13469720203630
ONEWEB-0149             
1 48058U 21025S   25151.96609589  .00000342  00000+0  90127-3 0  9991
2 48058  87.8978  35.9765 0001916  74.7796 285.3545 13.13472993203443
ONEWEB-0148             
1 48059U 21025T   25151.92884865 -.00000208  00000+0 -60482-3 0  9994
2 48059  87.8985  36.0060 0002340  68.6385 291.4994 13.13468714203565
ONEWEB-0160             
1 48060U 21025U   25151.94577758 -.00000172  00000+0 -50688-3 0  9995
2 48060  87.8982  35.9995 0001008  75.7196 284.4045 13.13472546203510
ONEWEB-0163             
1 48061U 21025V   25151.93056192 -.00000285  00000+0 -81504-3 0  9995
2 48061  87.8981  35.9846 0002104  84.1003 276.0366 13.13468409203633
ONEWEB-0159             
1 48062U 21025W   25151.69354886 -.00000162  00000+0 -47904-3 0  9990
2 48062  87.8982  36.0131 0002096  79.0738 281.0627 13.13472092203529
ONEWEB-0164             
1 48063U 21025X   25152.43670678  .00000306  00000+0  80262-3 0  9996
2 48063  87.8979  35.8761 0001777  81.2051 278.9279 13.13471849203617
ONEWEB-0167             
1 48064U 21025Y   25151.93140071 -.00000286  00000+0 -81814-3 0  9993
2 48064  87.8990  36.0030 0002283 100.1571 259.9816 13.13470408203520
ONEWEB-0166             
1 48065U 21025Z   25151.95424014  .00000066  00000+0  14497-3 0  9995
2 48065  87.8975  35.9583 0001972  77.1484 282.9865 13.13473663203600
ONEWEB-0151             
1 48066U 21025AA  25151.95593462  .00000074  00000+0  16639-3 0  9999
2 48066  87.8977  35.9798 0001853  85.7381 274.3960 13.13472505203548
ONEWEB-0170             
1 48067U 21025AB  25151.96440728  .00000261  00000+0  67891-3 0  9991
2 48067  87.8979  35.9834 0001491  93.5704 266.5595 13.13472167203503
ONEWEB-0168             
1 48068U 21025AC  25151.94915977 -.00000292  00000+0 -83372-3 0  9991
2 48068  87.8981  35.9661 0001904  82.2936 277.8410 13.13470749203512
ONEWEB-0173             
1 48069U 21025AD  25151.94071745 -.00000279  00000+0 -79818-3 0  9993
2 48069  87.8979  35.9758 0002279  89.6229 270.5161 13.13470698203751
ONEWEB-0171             
1 48070U 21025AE  25152.43501917  .00000260  00000+0  67624-3 0  9999
2 48070  87.8981  35.9156 0001846  84.7667 275.3673 13.13468875203631
ONEWEB-0172             
1 48071U 21025AF  25151.95762640 -.00000073  00000+0 -23382-3 0  9995
2 48071  87.8981  35.9767 0001929  86.7584 273.3766 13.13471002204461
ONEWEB-0174             
1 48072U 21025AG  25151.71047105 -.00000270  00000+0 -77476-3 0  9994
2 48072  87.8984  36.0394 0001965  78.3805 281.7545 13.13468822203751
ONEWEB-0175             
1 48073U 21025AH  25151.96948074  .00000425  00000+0  11301-2 0  9991
2 48073  87.8977  35.9566 0001721  92.4347 267.6979 13.13472947203444
ONEWEB-0177             
1 48074U 21025AJ  25151.67662745  .00000247  00000+0  64266-3 0  9999
2 48074  87.8979  36.0280 0002100  82.3000 277.8367 13.13470931203599
ONEWEB-0178             
1 48075U 21025AK  25151.69537561 -.00000219  00000+0 -63353-3 0  9996
2 48075  87.8988  36.0662 0002024  89.1151 271.0210 13.13468586203643
ONEWEB-0108             
1 48076U 21025AL  25151.95933455  .00000164  00000+0  41331-3 0  9997
2 48076  87.8977  35.9670 0001751  74.2810 285.8512 13.13470656203607
ONEWEB-0169             
1 48077U 21025AM  25152.37237604  .00000121  00000+0  29531-3 0  9999
2 48077  87.8981  35.9041 0001754  74.5128 285.6195 13.13468698203555
ONEWEB-0176             
1 48210U 21031A   25151.82887961  .00000009  00000+0 -10805-4 0  9992
2 48210  87.9046   5.5693 0001776  86.5280 273.6053 13.14501052198218
ONEWEB-0184             
1 48211U 21031B   25152.48698565  .00000138  00000+0  33857-3 0  9999
2 48211  87.9040   5.4095 0002063 113.0760 247.0587 13.14502106198271
ONEWEB-0179             
1 48212U 21031C   25151.69645974 -.00000173  00000+0 -50239-3 0  9992
2 48212  87.9045   5.5828 0001933  84.4395 275.6955 13.14501498198215
ONEWEB-0180             
1 48213U 21031D   25151.88121799  .00000176  00000+0  43963-3 0  9995
2 48213  87.9041   5.5345 0001989  91.6562 268.4796 13.14504347198122
ONEWEB-0218             
1 48214U 21031E   25151.82730115  .00000156  00000+0  38582-3 0  9997
2 48214  87.9044   5.5463 0002338 110.0684 250.0697 13.14503928198274
ONEWEB-0209             
1 48215U 21031F   25151.66396092  .00000268  00000+0  68739-3 0  9993
2 48215  87.9045   5.6212 0002002  84.8399 275.2959 13.14501662198259
ONEWEB-0198             
1 48216U 21031G   25152.56151795  .00000066  00000+0  14395-3 0  9998
2 48216  87.9042   5.4445 0002108  94.1688 265.9683 13.14504559198466
ONEWEB-0189             
1 48217U 21031H   25151.88913168  .00000307  00000+0  79408-3 0  9997
2 48217  87.9045   5.5523 0002152  94.0303 266.1072 13.14505010198132
ONEWEB-0196             
1 48218U 21031J   25152.55201324 -.00000079  00000+0 -24883-3 0  9992
2 48218  87.9046   5.4312 0001854  88.9805 271.1537 13.14504579198216
ONEWEB-0183             
1 48219U 21031K   25152.52663560 -.00000087  00000+0 -26992-3 0  9996
2 48219  87.9045   5.4491 0001874  80.7368 279.3973 13.14502849198313
ONEWEB-0185             
1 48220U 21031L   25152.55278457 -.00000414  00000+0 -11502-2 0  9992
2 48220  87.9039   5.4115 0002177  78.5110 281.6264 13.14503701198247
ONEWEB-0187             
1 48221U 21031M   25151.84777849 -.00000130  00000+0 -38436-3 0  9994
2 48221  87.9046   5.5955 0002172  85.2534 274.8844 13.14504238198164
ONEWEB-0192             
1 48222U 21031N   25151.89390550  .00000183  00000+0  46014-3 0  9997
2 48222  87.9046   5.5795 0001850  89.1711 270.9631 13.14504572198082
ONEWEB-0219             
1 48223U 21031P   25151.87328682  .00000043  00000+0  82721-4 0  9994
2 48223  87.9043   5.5563 0002000  85.2897 274.8461 13.14504384198280
ONEWEB-0202             
1 48224U 21031Q   25151.85425602 -.00000248  00000+0 -70318-3 0  9990
2 48224  87.9043   5.5748 0002364 102.8564 257.2830 13.14504266198268
ONEWEB-0204             
1 48225U 21031R   25151.88835882  .00000276  00000+0  71011-3 0  9999
2 48225  87.9023   5.5733 0001801  76.8286 283.3044 13.14502338198172
ONEWEB-0205             
1 48226U 21031S   25151.86377264 -.00000120  00000+0 -35826-3 0  9997
2 48226  87.9042   5.5566 0002042  84.5451 275.5912 13.14503928198179
ONEWEB-0206             
1 48227U 21031T   25152.52187826  .00000013  00000+0  89702-6 0  9999
2 48227  87.9043   5.4069 0001882  83.9499 276.1845 13.14502985198224
ONEWEB-0182             
1 48228U 21031U   25151.83206358  .00000040  00000+0  72735-4 0  9991
2 48228  87.9047   5.5860 0001731  81.8140 278.3186 13.14503277198331
ONEWEB-0186             
1 48229U 21031V   25152.52821123 -.00000069  00000+0 -21938-3 0  9993
2 48229  87.9047   5.4090 0001900  86.4512 273.6835 13.14504364198380
ONEWEB-0181             
1 48230U 21031W   25151.82094538  .00000229  00000+0  58317-3 0  9996
2 48230  87.9046   5.6215 0001954  89.1352 271.0001 13.14504586198139
ONEWEB-0188             
1 48231U 21031X   25152.54407374 -.00000176  00000+0 -51054-3 0  9997
2 48231  87.9043   5.4690 0001850  84.8502 275.2838 13.14503927198138
ONEWEB-0220             
1 48232U 21031Y   25152.12704017  .00000436  00000+0  11408-2 0  9991
2 48232  87.9040   5.4960 0002099  81.9723 278.1645 13.14499523198342
ONEWEB-0165             
1 48233U 21031Z   25151.85108054 -.00000156  00000+0 -45506-3 0  9998
2 48233  87.9045   5.5906 0002009  86.7991 273.3369 13.14504774198266
ONEWEB-0199             
1 48234U 21031AA  25151.83522749 -.00000036  00000+0 -13223-3 0  9996
2 48234  87.9046   5.5583 0001671  85.9532 274.1789 13.14502112198163
ONEWEB-0203             
1 48235U 21031AB  25151.82570660  .00000113  00000+0  26943-3 0  9998
2 48235  87.9046   5.5628 0001731  94.6628 265.4699 13.14501616198176
ONEWEB-0197             
1 48236U 21031AC  25151.64890575  .00000194  00000+0  48869-3 0  9999
2 48236  87.9033   5.6045 0001882  76.0183 284.1156 13.14502579198067
ONEWEB-0194             
1 48237U 21031AD  25151.85584404 -.00000176  00000+0 -51019-3 0  9997
2 48237  87.9046   5.5641 0001584  89.6398 270.4913 13.14504187198268
ONEWEB-0193             
1 48238U 21031AE  25151.87169674  .00000051  00000+0  10338-3 0  9997
2 48238  87.9044   5.5687 0001851  91.3345 268.7997 13.14504831198219
ONEWEB-0191             
1 48239U 21031AF  25151.88280539  .00000236  00000+0  60293-3 0  9993
2 48239  87.9042   5.5398 0001719  94.7115 265.4211 13.14504146198078
ONEWEB-0195             
1 48240U 21031AG  25151.85980651 -.00000211  00000+0 -60400-3 0  9999
2 48240  87.9041   5.5419 0002165  92.5155 267.6222 13.14501795198050
ONEWEB-0201             
1 48241U 21031AH  25151.84804092 -.00000223  00000+0 -63559-3 0  9994
2 48241  87.9046   5.5901 0002047  83.4057 276.7306 13.14501297198287
ONEWEB-0207             
1 48242U 21031AJ  25151.82808741  .00000045  00000+0  86523-4 0  9995
2 48242  87.9045   5.5558 0001942  80.5195 279.6154 13.14501288198192
